[{"OBJECT_NAME":"ONEWEB-0124","OBJECT_ID":"2020-100N","EPOCH":"2026-01-11T07:12:48.208608","MEAN_MOTION":13.12445671,"ECCENTRICITY":0.00018666,"INCLINATION":87.8921,"RA_OF_ASC_NODE":21.8364,"ARG_OF_PERICENTER":86.6608,"MEAN_ANOMALY":273.4734,"EPHEMERIS_TYPE":0,"CLASSIFICATION_TYPE":"U","NORAD_CAT_ID":47270,"ELEMENT_SET_NO":999,"REV_AT_EPOCH":24399,"BSTAR":9.6517252e-5,"MEAN_MOTION_DOT":4.7e-7,"MEAN_MOTION_DDOT":0},{"OBJECT_NAME":"ONEWEB-0125","OBJECT_ID":"2020-100P","EPOCH":"2026-01-11T01:11:44.492064","MEAN_MOTION":13.12444533,"ECCENTRICITY":0.00020467,"INCLINATION":87.8926,"RA_OF_ASC_NODE":21.8521,"ARG_OF_PERICENTER":90.055,"MEAN_ANOMALY":270.0813,"EPHEMERIS_TYPE":0,"CLASSIFICATION_TYPE":"U","NORAD_CAT_ID":47271,"ELEMENT_SET_NO":999,"REV_AT_EPOCH":24402,"BSTAR":-0.0010950871,"MEAN_MOTION_DOT":-3.81e-6,"MEAN_MOTION_DDOT":0},{"OBJECT_NAME":"ONEWEB-0126","OBJECT_ID":"2020-100Q","EPOCH":"2026-01-11T07:10:34.710240","MEAN_MOTION":13.12442741,"ECCENTRICITY":0.00016814,"INCLINATION":87.8929,"RA_OF_ASC_NODE":21.8255,"ARG_OF_PERICENTER":94.2459,"MEAN_ANOMALY":265.8861,"EPHEMERIS_TYPE":0,"CLASSIFICATION_TYPE":"U","NORAD_CAT_ID":47272,"ELEMENT_SET_NO":999,"REV_AT_EPOCH":24412,"BSTAR":-9.6545286e-5,"MEAN_MOTION_DOT":-2.2e-7,"MEAN_MOTION_DDOT":0},{"OBJECT_NAME":"ONEWEB-0127","OBJECT_ID":"2020-100R","EPOCH":"2026-01-11T06:21:34.793856","MEAN_MOTION":13.12440379,"ECCENTRICITY":0.00016215,"INCLINATION":87.8922,"RA_OF_ASC_NODE":21.8408,"ARG_OF_PERICENTER":93.5731,"MEAN_ANOMALY":266.5583,"EPHEMERIS_TYPE":0,"CLASSIFICATION_TYPE":"U","NORAD_CAT_ID":47273,"ELEMENT_SET_NO":999,"REV_AT_EPOCH":24414,"BSTAR":-0.00022807818,"MEAN_MOTION_DOT":-6.9e-7,"MEAN_MOTION_DDOT":0},{"OBJECT_NAME":"ONEWEB-0128","OBJECT_ID":"2020-100S","EPOCH":"2026-01-11T06:53:16.653984","MEAN_MOTION":13.12442031,"ECCENTRICITY":0.00016152,"INCLINATION":87.8919,"RA_OF_ASC_NODE":21.8518,"ARG_OF_PERICENTER":81.742,"MEAN_ANOMALY":278.3892,"EPHEMERIS_TYPE":0,"CLASSIFICATION_TYPE":"U","NORAD_CAT_ID":47274,"ELEMENT_SET_NO":999,"REV_AT_EPOCH":24416,"BSTAR":-0.00099121593,"MEAN_MOTION_DOT":-3.44e-6,"MEAN_MOTION_DDOT":0},{"OBJECT_NAME":"ONEWEB-0129","OBJECT_ID":"2020-100T","EPOCH":"2026-01-11T06:24:01.012032","MEAN_MOTION":13.12441455,"ECCENTRICITY":0.00012693,"INCLINATION":87.8929,"RA_OF_ASC_NODE":21.8135,"ARG_OF_PERICENTER":132.8298,"MEAN_ANOMALY":227.2938,"EPHEMERIS_TYPE":0,"CLASSIFICATION_TYPE":"U","NORAD_CAT_ID":47275,"ELEMENT_SET_NO":999,"REV_AT_EPOCH":24409,"BSTAR":-0.00038261945,"MEAN_MOTION_DOT":-1.25e-6,"MEAN_MOTION_DDOT":0},{"OBJECT_NAME":"ONEWEB-0130","OBJECT_ID":"2020-100U","EPOCH":"2026-01-11T07:03:02.873664","MEAN_MOTION":13.12444843,"ECCENTRICITY":0.00016134,"INCLINATION":87.8928,"RA_OF_ASC_NODE":21.8024,"ARG_OF_PERICENTER":89.9671,"MEAN_ANOMALY":270.1642,"EPHEMERIS_TYPE":0,"CLASSIFICATION_TYPE":"U","NORAD_CAT_ID":47276,"ELEMENT_SET_NO":999,"REV_AT_EPOCH":24406,"BSTAR":-0.00069032468,"MEAN_MOTION_DOT":-2.36e-6,"MEAN_MOTION_DDOT":0},{"OBJECT_NAME":"ONEWEB-0131","OBJECT_ID":"2020-100V","EPOCH":"2026-01-11T06:58:10.344000","MEAN_MOTION":13.12442618,"ECCENTRICITY":0.00017067,"INCLINATION":87.893,"RA_OF_ASC_NODE":21.8335,"ARG_OF_PERICENTER":88.9088,"MEAN_ANOMALY":271.2236,"EPHEMERIS_TYPE":0,"CLASSIFICATION_TYPE":"U","NORAD_CAT_ID":47277,"ELEMENT_SET_NO":999,"REV_AT_EPOCH":24410,"BSTAR":-0.0010216945,"MEAN_MOTION_DOT":-3.55e-6,"MEAN_MOTION_DDOT":0},{"OBJECT_NAME":"ONEWEB-0132","OBJECT_ID":"2020-100W","EPOCH":"2026-01-11T07:39:36.522144","MEAN_MOTION":13.12444194,"ECCENTRICITY":0.00017344,"INCLINATION":87.8922,"RA_OF_ASC_NODE":21.8287,"ARG_OF_PERICENTER":87.7794,"MEAN_ANOMALY":272.3533,"EPHEMERIS_TYPE":0,"CLASSIFICATION_TYPE":"U","NORAD_CAT_ID":47278,"ELEMENT_SET_NO":999,"REV_AT_EPOCH":24400,"BSTAR":-0.00055102024,"MEAN_MOTION_DOT":-1.86e-6,"MEAN_MOTION_DDOT":0},{"OBJECT_NAME":"ONEWEB-0133","OBJECT_ID":"2020-100X","EPOCH":"2026-01-11T06:14:02.715360","MEAN_MOTION":13.12442486,"ECCENTRICITY":0.00016888,"INCLINATION":87.8925,"RA_OF_ASC_NODE":21.802,"ARG_OF_PERICENTER":84.9644,"MEAN_ANOMALY":275.1677,"EPHEMERIS_TYPE":0,"CLASSIFICATION_TYPE":"U","NORAD_CAT_ID":47279,"ELEMENT_SET_NO":999,"REV_AT_EPOCH":24415,"BSTAR":0.00029643613,"MEAN_MOTION_DOT":1.19e-6,"MEAN_MOTION_DDOT":0},{"OBJECT_NAME":"ONEWEB-0134","OBJECT_ID":"2020-100Y","EPOCH":"2026-01-11T07:20:08.393280","MEAN_MOTION":13.12444888,"ECCENTRICITY":0.00014949,"INCLINATION":87.8929,"RA_OF_ASC_NODE":21.7892,"ARG_OF_PERICENTER":87.1699,"MEAN_ANOMALY":272.9601,"EPHEMERIS_TYPE":0,"CLASSIFICATION_TYPE":"U","NORAD_CAT_ID":47280,"ELEMENT_SET_NO":999,"REV_AT_EPOCH":24413,"BSTAR":0.00049490688,"MEAN_MOTION_DOT":1.91e-6,"MEAN_MOTION_DDOT":0},{"OBJECT_NAME":"ONEWEB-0135","OBJECT_ID":"2020-100Z","EPOCH":"2026-01-11T06:38:39.436512","MEAN_MOTION":13.12442914,"ECCENTRICITY":0.00014803,"INCLINATION":87.8926,"RA_OF_ASC_NODE":21.8338,"ARG_OF_PERICENTER":82.8659,"MEAN_ANOMALY":277.2638,"EPHEMERIS_TYPE":0,"CLASSIFICATION_TYPE":"U","NORAD_CAT_ID":47281,"ELEMENT_SET_NO":999,"REV_AT_EPOCH":24415,"BSTAR":-0.00096140642,"MEAN_MOTION_DOT":-3.33e-6,"MEAN_MOTION_DDOT":0},{"OBJECT_NAME":"ONEWEB-0136","OBJECT_ID":"2020-100AA","EPOCH":"2026-01-11T01:36:09.076608","MEAN_MOTION":13.1244364,"ECCENTRICITY":0.00013336,"INCLINATION":87.8929,"RA_OF_ASC_NODE":21.8457,"ARG_OF_PERICENTER":88.8229,"MEAN_ANOMALY":271.3052,"EPHEMERIS_TYPE":0,"CLASSIFICATION_TYPE":"U","NORAD_CAT_ID":47282,"ELEMENT_SET_NO":999,"REV_AT_EPOCH":24405,"BSTAR":-0.00029754224,"MEAN_MOTION_DOT":-9.4e-7,"MEAN_MOTION_DDOT":0},{"OBJECT_NAME":"ONEWEB-0137","OBJECT_ID":"2020-100AB","EPOCH":"2026-01-11T00:35:08.509056","MEAN_MOTION":13.12442907,"ECCENTRICITY":0.00018329,"INCLINATION":87.8927,"RA_OF_ASC_NODE":21.8596,"ARG_OF_PERICENTER":92.8527,"MEAN_ANOMALY":267.2811,"EPHEMERIS_TYPE":0,"CLASSIFICATION_TYPE":"U","NORAD_CAT_ID":47283,"ELEMENT_SET_NO":999,"REV_AT_EPOCH":24395,"BSTAR":0.00066457149,"MEAN_MOTION_DOT":2.52e-6,"MEAN_MOTION_DDOT":0},{"OBJECT_NAME":"ONEWEB-0138","OBJECT_ID":"2020-100AC","EPOCH":"2026-01-11T07:22:33.941856","MEAN_MOTION":13.12444139,"ECCENTRICITY":0.00015301,"INCLINATION":87.8931,"RA_OF_ASC_NODE":21.8122,"ARG_OF_PERICENTER":90.8616,"MEAN_ANOMALY":269.2688,"EPHEMERIS_TYPE":0,"CLASSIFICATION_TYPE":"U","NORAD_CAT_ID":47284,"ELEMENT_SET_NO":999,"REV_AT_EPOCH":24407,"BSTAR":0.00056523027,"MEAN_MOTION_DOT":2.16e-6,"MEAN_MOTION_DDOT":0},{"OBJECT_NAME":"ONEWEB-0139","OBJECT_ID":"2020-100AD","EPOCH":"2026-01-11T06:31:31.473984","MEAN_MOTION":13.12441378,"ECCENTRICITY":0.00017424,"INCLINATION":87.8925,"RA_OF_ASC_NODE":21.8082,"ARG_OF_PERICENTER":91.2247,"MEAN_ANOMALY":268.9081,"EPHEMERIS_TYPE":0,"CLASSIFICATION_TYPE":"U","NORAD_CAT_ID":47285,"ELEMENT_SET_NO":999,"REV_AT_EPOCH":24414,"BSTAR":-0.00098617903,"MEAN_MOTION_DOT":-3.42e-6,"MEAN_MOTION_DDOT":0}]
