ONEWEB-0124             
1 47270U 20100N   26011.30055797  .00000047  00000+0  96517-4 0  9991
2 47270  87.8921  21.8364 0001866  86.6608 273.4734 13.12445671243997
ONEWEB-0125             
1 47271U 20100P   26011.04982051 -.00000381  00000+0 -10951-2 0  9994
2 47271  87.8926  21.8521 0002046  90.0550 270.0813 13.12444533244026
ONEWEB-0126             
1 47272U 20100Q   26011.29901285 -.00000022  00000+0 -96545-4 0  9999
2 47272  87.8929  21.8255 0001681  94.2459 265.8861 13.12442741244127
ONEWEB-0127             
1 47273U 20100R   26011.26498604 -.00000069  00000+0 -22808-3 0  9994
2 47273  87.8922  21.8408 0001621  93.5731 266.5583 13.12440379244146
ONEWEB-0128             
1 47274U 20100S   26011.28699831 -.00000344  00000+0 -99122-3 0  9991
2 47274  87.8919  21.8518 0001615  81.7420 278.3892 13.12442031244165
ONEWEB-0129             
1 47275U 20100T   26011.26667838 -.00000125  00000+0 -38262-3 0  9997
2 47275  87.8929  21.8135 0001269 132.8298 227.2938 13.12441455244093
ONEWEB-0130             
1 47276U 20100U   26011.29378326 -.00000236  00000+0 -69032-3 0  9994
2 47276  87.8928  21.8024 0001613  89.9671 270.1642 13.12444843244060
ONEWEB-0131             
1 47277U 20100V   26011.29039750 -.00000355  00000+0 -10217-2 0  9992
2 47277  87.8930  21.8335 0001706  88.9088 271.2236 13.12442618244107
ONEWEB-0132             
1 47278U 20100W   26011.31917271 -.00000186  00000+0 -55102-3 0  9994
2 47278  87.8922  21.8287 0001734  87.7794 272.3533 13.12444194244009
ONEWEB-0133             
1 47279U 20100X   26011.25975365  .00000119  00000+0  29644-3 0  9992
2 47279  87.8925  21.8020 0001688  84.9644 275.1677 13.12442486244157
ONEWEB-0134             
1 47280U 20100Y   26011.30565270  .00000191  00000+0  49491-3 0  9992
2 47280  87.8929  21.7892 0001494  87.1699 272.9601 13.12444888244137
ONEWEB-0135             
1 47281U 20100Z   26011.27684533 -.00000333  00000+0 -96141-3 0  9997
2 47281  87.8926  21.8338 0001480  82.8659 277.2638 13.12442914244152
ONEWEB-0136             
1 47282U 20100AA  26011.06677172 -.00000094  00000+0 -29754-3 0  9996
2 47282  87.8929  21.8457 0001333  88.8229 271.3052 13.12443640244055
ONEWEB-0137             
1 47283U 20100AB  26011.02440404  .00000252  00000+0  66457-3 0  9994
2 47283  87.8927  21.8596 0001832  92.8527 267.2811 13.12442907243958
ONEWEB-0138             
1 47284U 20100AC  26011.30733729  .00000216  00000+0  56523-3 0  9994
2 47284  87.8931  21.8122 0001530  90.8616 269.2688 13.12444139244078
ONEWEB-0139             
1 47285U 20100AD  26011.27189206 -.00000342  00000+0 -98618-3 0  9999
2 47285  87.8925  21.8082 0001742  91.2247 268.9081 13.12441378244140
